LANDSAT 9               
1 49260U 21088A   23345.19285835  .00000323  00000+0  81703-4 0  9998
2 49260  98.2121  52.7932 0001236  87.8238 272.3102 14.57098492117175
